start=new Date('2023-05-27T00:00:00.000Z').valueOf();
sats=[{"MEAN_MOTION_DDOT":"0.0000000000000","FILE":"3917850","ARG_OF_PERICENTER":"94.6281","MEAN_MOTION_DOT":"0.00001022","REV_AT_EPOCH":"4931","REF_FRAME":"TEME","SEMIMAJOR_AXIS":"6917.877","MEAN_ANOMALY":"265.4829","RA_OF_ASC_NODE":"333.8464","COUNTRY_CODE":"US","DECAY_DATE":null,"EPHEMERIS_TYPE":"0","NORAD_CAT_ID":"53025","BSTAR":"0.00008230500000","MEAN_ELEMENT_THEORY":"SGP4","PERIAPSIS":"539.028","OBJECT_TYPE":"PAYLOAD","TLE_LINE2":"2 53025  53.2175 333.8464 0001032  94.6281 265.4829 15.08841001 49318","GP_ID":"232586726","APOAPSIS":"540.456","OBJECT_NAME":"STARLINK-4218","ECCENTRICITY":"0.00010320","TIME_SYSTEM":"UTC","EPOCH":"2023-05-26T17:54:14.825952","INCLINATION":"53.2175","MEAN_MOTION":"15.08841001","RCS_SIZE":"LARGE","CLASSIFICATION_TYPE":"U","PERIOD":"95.437","TLE_LINE1":"1 53025U 22076AR  23146.74600493  .00001022  00000-0  82305-4 0  9998","OBJECT_ID":"2022-076AR","SITE":"AFETR","ELEMENT_SET_NO":"999","LAUNCH_DATE":"2022-07-07","CENTER_NAME":"EARTH"},{"EPOCH":"2023-05-26T21:26:13.100352","TIME_SYSTEM":"UTC","INCLINATION":"53.2170","TLE_LINE2":"2 53026  53.2170 333.1858 0001212  84.5949 275.5181 15.08842191 49339","OBJECT_TYPE":"PAYLOAD","ECCENTRICITY":"0.00012120","OBJECT_NAME":"STARLINK-4119","GP_ID":"232587978","APOAPSIS":"540.577","SITE":"AFETR","OBJECT_ID":"2022-076AS","TLE_LINE1":"1 53026U 22076AS  23146.89320718  .00001287  00000-0  98908-4 0  9993","CENTER_NAME":"EARTH","ELEMENT_SET_NO":"999","LAUNCH_DATE":"2022-07-07","MEAN_MOTION":"15.08842191","PERIOD":"95.437","CLASSIFICATION_TYPE":"U","RCS_SIZE":"LARGE","MEAN_MOTION_DOT":"0.00001287","ARG_OF_PERICENTER":"84.5949","SEMIMAJOR_AXIS":"6917.874","REF_FRAME":"TEME","REV_AT_EPOCH":"4933","MEAN_MOTION_DDOT":"0.0000000000000","FILE":"3917850","MEAN_ELEMENT_THEORY":"SGP4","BSTAR":"0.00009890800000","PERIAPSIS":"538.900","MEAN_ANOMALY":"275.5181","NORAD_CAT_ID":"53026","DECAY_DATE":null,"EPHEMERIS_TYPE":"0","COUNTRY_CODE":"US","RA_OF_ASC_NODE":"333.1858"},{"TLE_LINE1":"1 53027U 22076AT  23146.80120726  .00000948  00000-0  77626-4 0  9999","SITE":"AFETR","OBJECT_ID":"2022-076AT","LAUNCH_DATE":"2022-07-07","ELEMENT_SET_NO":"999","CENTER_NAME":"EARTH","MEAN_MOTION":"15.08842784","CLASSIFICATION_TYPE":"U","RCS_SIZE":"LARGE","PERIOD":"95.437","TIME_SYSTEM":"UTC","EPOCH":"2023-05-26T19:13:44.307264","INCLINATION":"53.2171","OBJECT_TYPE":"PAYLOAD","TLE_LINE2":"2 53027  53.2171 333.5966 0001063  99.8979 260.2133 15.08842784 49326","GP_ID":"232587728","APOAPSIS":"540.472","OBJECT_NAME":"STARLINK-4158","ECCENTRICITY":"0.00010630","MEAN_ELEMENT_THEORY":"SGP4","BSTAR":"0.00007762600000","PERIAPSIS":"539.002","MEAN_ANOMALY":"260.2133","DECAY_DATE":null,"NORAD_CAT_ID":"53027","EPHEMERIS_TYPE":"0","RA_OF_ASC_NODE":"333.5966","COUNTRY_CODE":"US","MEAN_MOTION_DOT":"0.00000948","ARG_OF_PERICENTER":"99.8979","REV_AT_EPOCH":"4932","SEMIMAJOR_AXIS":"6917.872","REF_FRAME":"TEME","MEAN_MOTION_DDOT":"0.0000000000000","FILE":"3917850"},{"MEAN_ANOMALY":"267.5504","EPHEMERIS_TYPE":"0","DECAY_DATE":null,"NORAD_CAT_ID":"53029","COUNTRY_CODE":"US","RA_OF_ASC_NODE":"323.6621","MEAN_ELEMENT_THEORY":"SGP4","BSTAR":"0.00005775600000","PERIAPSIS":"539.111","MEAN_MOTION_DDOT":"0.0000000000000","FILE":"3917850","MEAN_MOTION_DOT":"0.00000632","ARG_OF_PERICENTER":"92.5592","SEMIMAJOR_AXIS":"6917.875","REF_FRAME":"TEME","REV_AT_EPOCH":"4945","MEAN_MOTION":"15.08841656","PERIOD":"95.437","CLASSIFICATION_TYPE":"U","RCS_SIZE":"LARGE","SITE":"AFETR","OBJECT_ID":"2022-076AV","TLE_LINE1":"1 53029U 22076AV  23146.78740617  .00000632  00000-0  57756-4 0  9997","CENTER_NAME":"EARTH","LAUNCH_DATE":"2022-07-07","ELEMENT_SET_NO":"999","TLE_LINE2":"2 53029  53.2163 323.6621 0000910  92.5592 267.5504 15.08841656 49451","OBJECT_TYPE":"PAYLOAD","ECCENTRICITY":"0.00009100","GP_ID":"232586476","OBJECT_NAME":"STARLINK-4143","APOAPSIS":"540.370","EPOCH":"2023-05-26T18:53:51.893088","TIME_SYSTEM":"UTC","INCLINATION":"53.2163"},{"MEAN_MOTION_DOT":"0.00000163","ARG_OF_PERICENTER":"102.7737","SEMIMAJOR_AXIS":"6917.886","REF_FRAME":"TEME","REV_AT_EPOCH":"4932","MEAN_MOTION_DDOT":"0.0000000000000","FILE":"3917850","MEAN_ELEMENT_THEORY":"SGP4","BSTAR":"0.00002830200000","PERIAPSIS":"538.929","MEAN_ANOMALY":"257.3387","DECAY_DATE":null,"NORAD_CAT_ID":"53030","EPHEMERIS_TYPE":"0","RA_OF_ASC_NODE":"333.5700","COUNTRY_CODE":"US","EPOCH":"2023-05-26T19:25:43.004928","TIME_SYSTEM":"UTC","INCLINATION":"53.2170","TLE_LINE2":"2 53030  53.2170 333.5700 0001188 102.7737 257.3387 15.08838123 49329","OBJECT_TYPE":"PAYLOAD","ECCENTRICITY":"0.00011880","APOAPSIS":"540.573","GP_ID":"232587227","OBJECT_NAME":"STARLINK-4160","SITE":"AFETR","OBJECT_ID":"2022-076AW","TLE_LINE1":"1 53030U 22076AW  23146.80952552  .00000163  00000-0  28302-4 0  9999","CENTER_NAME":"EARTH","ELEMENT_SET_NO":"999","LAUNCH_DATE":"2022-07-07","MEAN_MOTION":"15.08838123","PERIOD":"95.438","CLASSIFICATION_TYPE":"U","RCS_SIZE":"MEDIUM"},{"FILE":"3917850","MEAN_MOTION_DDOT":"0.0000000000000","SEMIMAJOR_AXIS":"6917.881","REF_FRAME":"TEME","REV_AT_EPOCH":"4945","MEAN_MOTION_DOT":"0.00000379","ARG_OF_PERICENTER":"99.0811","DECAY_DATE":null,"NORAD_CAT_ID":"53031","EPHEMERIS_TYPE":"0","RA_OF_ASC_NODE":"323.7084","COUNTRY_CODE":"US","MEAN_ANOMALY":"261.0302","PERIAPSIS":"539.012","MEAN_ELEMENT_THEORY":"SGP4","BSTAR":"0.00004190900000","ECCENTRICITY":"0.00010610","APOAPSIS":"540.480","GP_ID":"232587478","OBJECT_NAME":"STARLINK-4137","TLE_LINE2":"2 53031  53.2169 323.7084 0001061  99.0811 261.0302 15.08839760 49456","OBJECT_TYPE":"PAYLOAD","INCLINATION":"53.2169","EPOCH":"2023-05-26T18:37:58.101888","TIME_SYSTEM":"UTC","PERIOD":"95.438","CLASSIFICATION_TYPE":"U","RCS_SIZE":"LARGE","MEAN_MOTION":"15.08839760","CENTER_NAME":"EARTH","LAUNCH_DATE":"2022-07-07","ELEMENT_SET_NO":"999","SITE":"AFETR","OBJECT_ID":"2022-076AX","TLE_LINE1":"1 53031U 22076AX  23146.77636692  .00000379  00000-0  41909-4 0  9997"},{"REV_AT_EPOCH":"4932","REF_FRAME":"TEME","SEMIMAJOR_AXIS":"6917.876","ARG_OF_PERICENTER":"71.0010","MEAN_MOTION_DOT":"0.00002811","FILE":"3917850","MEAN_MOTION_DDOT":"0.0000000000000","PERIAPSIS":"538.875","BSTAR":"0.00019460000000","MEAN_ELEMENT_THEORY":"SGP4","RA_OF_ASC_NODE":"333.5812","COUNTRY_CODE":"US","NORAD_CAT_ID":"53032","DECAY_DATE":null,"EPHEMERIS_TYPE":"0","MEAN_ANOMALY":"289.1117","INCLINATION":"53.2176","TIME_SYSTEM":"UTC","EPOCH":"2023-05-26T19:19:02.324064","OBJECT_NAME":"STARLINK-4115","GP_ID":"232588229","APOAPSIS":"540.607","ECCENTRICITY":"0.00012520","OBJECT_TYPE":"PAYLOAD","TLE_LINE2":"2 53032  53.2176 333.5812 0001252  71.0010 289.1117 15.08841335 49328","LAUNCH_DATE":"2022-07-07","ELEMENT_SET_NO":"999","CENTER_NAME":"EARTH","TLE_LINE1":"1 53032U 22076AY  23146.80488801  .00002811  00000-0  19460-3 0  9998","OBJECT_ID":"2022-076AY","SITE":"AFETR","RCS_SIZE":"LARGE","CLASSIFICATION_TYPE":"U","PERIOD":"95.437","MEAN_MOTION":"15.08841335"},{"FILE":"3917850","MEAN_MOTION_DDOT":"0.0000000000000","REV_AT_EPOCH":"4947","REF_FRAME":"TEME","SEMIMAJOR_AXIS":"6917.886","ARG_OF_PERICENTER":"113.8937","MEAN_MOTION_DOT":"0.00000508","RA_OF_ASC_NODE":"323.0969","COUNTRY_CODE":"US","EPHEMERIS_TYPE":"0","DECAY_DATE":null,"NORAD_CAT_ID":"53033","MEAN_ANOMALY":"246.2150","PERIAPSIS":"539.120","BSTAR":"0.00005000500000","MEAN_ELEMENT_THEORY":"SGP4","APOAPSIS":"540.382","GP_ID":"232586977","OBJECT_NAME":"STARLINK-4167","ECCENTRICITY":"0.00009120","OBJECT_TYPE":"PAYLOAD","TLE_LINE2":"2 53033  53.2169 323.0969 0000912 113.8937 246.2150 15.08838205 49472","INCLINATION":"53.2169","TIME_SYSTEM":"UTC","EPOCH":"2023-05-26T21:54:02.331072","RCS_SIZE":"LARGE","CLASSIFICATION_TYPE":"U","PERIOD":"95.438","MEAN_MOTION":"15.08838205","LAUNCH_DATE":"2022-07-07","ELEMENT_SET_NO":"999","CENTER_NAME":"EARTH","TLE_LINE1":"1 53033U 22076AZ  23146.91252698  .00000508  00000-0  50005-4 0  9996","OBJECT_ID":"2022-076AZ","SITE":"AFETR"},{"DECAY_DATE":null,"NORAD_CAT_ID":"53034","EPHEMERIS_TYPE":"0","COUNTRY_CODE":"US","RA_OF_ASC_NODE":"323.6787","MEAN_ANOMALY":"253.7579","PERIAPSIS":"539.059","MEAN_ELEMENT_THEORY":"SGP4","BSTAR":"0.00007094200000","FILE":"3917850","MEAN_MOTION_DDOT":"0.0000000000000","SEMIMAJOR_AXIS":"6917.870","REF_FRAME":"TEME","REV_AT_EPOCH":"4945","MEAN_MOTION_DOT":"0.00000842","ARG_OF_PERICENTER":"106.3520","PERIOD":"95.437","CLASSIFICATION_TYPE":"U","RCS_SIZE":"LARGE","MEAN_MOTION":"15.08843369","CENTER_NAME":"EARTH","LAUNCH_DATE":"2022-07-07","ELEMENT_SET_NO":"999","SITE":"AFETR","OBJECT_ID":"2022-076BA","TLE_LINE1":"1 53034U 22076BA  23146.78372529  .00000842  00000-0  70942-4 0  9991","ECCENTRICITY":"0.00009780","APOAPSIS":"540.412","GP_ID":"232586727","OBJECT_NAME":"STARLINK-4151","TLE_LINE2":"2 53034  53.2168 323.6787 0000978 106.3520 253.7579 15.08843369 49456","OBJECT_TYPE":"PAYLOAD","INCLINATION":"53.2168","EPOCH":"2023-05-26T18:48:33.865056","TIME_SYSTEM":"UTC"},{"MEAN_ELEMENT_THEORY":"SGP4","BSTAR":"0.00003508700000","PERIAPSIS":"539.121","MEAN_ANOMALY":"263.3132","NORAD_CAT_ID":"53035","DECAY_DATE":null,"EPHEMERIS_TYPE":"0","RA_OF_ASC_NODE":"323.1304","COUNTRY_CODE":"US","MEAN_MOTION_DOT":"0.00000271","ARG_OF_PERICENTER":"96.7962","SEMIMAJOR_AXIS":"6917.878","REF_FRAME":"TEME","REV_AT_EPOCH":"4947","MEAN_MOTION_DDOT":"0.0000000000000","FILE":"3917850","SITE":"AFETR","OBJECT_ID":"2022-076BB","TLE_LINE1":"1 53035U 22076BB  23146.90516612  .00000271  00000-0  35087-4 0  9996","CENTER_NAME":"EARTH","ELEMENT_SET_NO":"999","LAUNCH_DATE":"2022-07-07","MEAN_MOTION":"15.08840709","PERIOD":"95.438","CLASSIFICATION_TYPE":"U","RCS_SIZE":"LARGE","EPOCH":"2023-05-26T21:43:26.352768","TIME_SYSTEM":"UTC","INCLINATION":"53.2173","TLE_LINE2":"2 53035  53.2173 323.1304 0000900  96.7962 263.3132 15.08840709 49479","OBJECT_TYPE":"PAYLOAD","ECCENTRICITY":"0.00009000","APOAPSIS":"540.366","GP_ID":"232587979","OBJECT_NAME":"STARLINK-4157"}];
